NORAD_CAT_ID,OBJECT_NAME,OBJECT_TYPE,EPOCH,MEAN_MOTION,ECCENTRICITY,INCLINATION,RA_OF_ASC_NODE,ARG_OF_PERICENTER,MEAN_ANOMALY,BSTAR,MEAN_MOTION_DOT,MEAN_MOTION_DDOT,TLE_LINE0,TLE_LINE1,TLE_LINE2,SEMIMAJOR_AXIS,PERIOD,APOGEE,PERIGEE,DECAYED
55791.0,STARLINK-5807,PAYLOAD,2023-12-08 11:10:48,14.98343797,0.0002802,70.0007,117.6349,277.2357,82.8484,-0.00013345,-1.685e-05,0.0,0 STARLINK-5807,1 55791U 23028BC  23342.46583348 -.00001685  00000-0 -13345-3 0  9998,2 55791  70.0007 117.6349 0002802 277.2357  82.8484 14.98343797 43858,6950.15,96.106,573.963,570.068,0.0
55791.0,STARLINK-5807,PAYLOAD,2023-12-09 11:12:48,14.98331364,0.0003149,69.9995,115.1076,280.9848,79.0957,5.5613e-06,-2.7e-07,0.0,0 STARLINK-5807,1 55791U 23028BC  23343.46723171 -.00000027  00000-0  55613-5 0  9993,2 55791  69.9995 115.1076 0003149 280.9848  79.0957 14.98331364 44000,6950.189,96.107,574.242,569.865,0.0
55791.0,STARLINK-5807,PAYLOAD,2023-12-09 12:48:56,14.98331299,0.000315,69.9996,114.9394,281.0044,79.0761,5.3005e-06,-3e-07,0.0,0 STARLINK-5807,1 55791U 23028BC  23343.53399166 -.00000030  00000-0  53005-5 0  9991,2 55791  69.9996 114.9394 0003150 281.0044  79.0761 14.98331299 44025,6950.189,96.107,574.243,569.865,0.0
55791.0,STARLINK-5807,PAYLOAD,2023-12-10 14:27:05,14.98329857,0.0003173,70.0,112.2467,281.1649,78.9153,-2.1184e-05,-3.46e-06,0.0,0 STARLINK-5807,1 55791U 23028BC  23344.60215243 -.00000346  00000-0 -21184-4 0  9996,2 55791  70.0000 112.2467 0003173 281.1649  78.9153 14.98329857 44180,6950.193,96.107,574.264,569.853,0.0
55791.0,STARLINK-5807,PAYLOAD,2023-12-10 17:39:22,14.98330555,0.0003325,69.9998,111.91,282.4544,77.6243,-1.3155e-05,-2.5e-06,0.0,0 STARLINK-5807,1 55791U 23028BC  23344.73567174 -.00000250  00000-0 -13155-4 0  9996,2 55791  69.9998 111.9100 0003325 282.4544  77.6243 14.98330555 44194,6950.191,96.107,574.367,569.745,0.0
55791.0,STARLINK-5807,PAYLOAD,2023-12-11 14:29:06,14.98330058,0.0003387,69.9998,109.7219,281.7871,78.2908,-8.3059e-07,-1.03e-06,0.0,0 STARLINK-5807,1 55791U 23028BC  23345.60355082 -.00000103  00000-0 -83059-6 0  9995,2 55791  69.9998 109.7219 0003387 281.7871  78.2908 14.98330058 44332,6950.193,96.107,574.412,569.704,0.0
55791.0,STARLINK-5807,PAYLOAD,2023-12-11 17:41:22,14.98331569,0.0003281,70.0,109.3855,280.2502,79.8287,1.6234e-05,1.01e-06,0.0,0 STARLINK-5807,1 55791U 23028BC  23345.73706913  .00000101  00000-0  16234-4 0  9997,2 55791  70.0000 109.3855 0003281 280.2502  79.8287 14.98331569 44345,6950.188,96.107,574.333,569.773,0.0
55791.0,STARLINK-5807,PAYLOAD,2023-12-12 12:54:59,14.98329104,0.0003195,70.0002,107.3662,276.2372,83.8423,5.3275e-06,-2.9e-07,0.0,0 STARLINK-5807,1 55791U 23028BC  23346.53818995 -.00000029  00000-0  53275-5 0  9997,2 55791  70.0002 107.3662 0003195 276.2372  83.8423 14.98329104 44478,6950.196,96.107,574.281,569.84,0.0
55791.0,STARLINK-5807,PAYLOAD,2023-12-12 17:43:23,14.98332755,0.0003136,70.0003,106.8613,276.0172,84.063,-3.0529e-05,-4.57e-06,0.0,0 STARLINK-5807,1 55791U 23028BC  23346.73846833 -.00000457  00000-0 -30529-4 0  9993,2 55791  70.0003 106.8613 0003136 276.0172  84.0630 14.98332755 44491,6950.184,96.107,574.229,569.87,0.0
55791.0,STARLINK-5807,PAYLOAD,2023-12-13 14:33:08,14.98334309,0.0003132,70.0005,104.6734,273.3651,86.715,2.3122e-05,1.83e-06,0.0,0 STARLINK-5807,1 55791U 23028BC  23347.60634433  .00000183  00000-0  23122-4 0  9996,2 55791  70.0005 104.6734 0003132 273.3651  86.7150 14.98334309 44630,6950.18,96.107,574.221,569.868,0.0
55791.0,STARLINK-5807,PAYLOAD,2023-12-13 17:45:24,14.98335298,0.0003128,70.0005,104.3368,273.3802,86.6999,3.3173e-05,3.03e-06,0.0,0 STARLINK-5807,1 55791U 23028BC  23347.73986296  .00000303  00000-0  33173-4 0  9998,2 55791  70.0005 104.3368 0003128 273.3802  86.6999 14.98335298 44642,6950.177,96.107,574.216,569.867,0.0
55791.0,STARLINK-5807,PAYLOAD,2023-12-14 11:22:53,14.98326567,0.0002902,70.001,102.4863,266.7648,93.3179,-2.9675e-05,-4.47e-06,0.0,0 STARLINK-5807,1 55791U 23028BC  23348.47422951 -.00000447  00000-0 -29675-4 0  9996,2 55791  70.0010 102.4863 0002902 266.7648  93.3179 14.98326567 44756,6950.204,96.107,574.085,570.052,0.0
55791.0,STARLINK-5807,PAYLOAD,2023-12-14 14:35:09,14.98324538,0.0002796,70.0012,102.1494,265.554,94.53,-5.6396e-06,-1.6e-06,0.0,0 STARLINK-5807,1 55791U 23028BC  23348.60775038 -.00000160  00000-0 -56396-5 0  9991,2 55791  70.0012 102.1494 0002796 265.5540  94.5300 14.98324538 44782,6950.21,96.107,574.018,570.132,0.0
55791.0,STARLINK-5807,PAYLOAD,2023-12-14 17:47:25,14.98326451,0.0002924,70.001,101.8128,268.3596,91.7228,-2.9e-05,-4.39e-06,0.0,0 STARLINK-5807,1 55791U 23028BC  23348.74127007 -.00000439  00000-0 -29000-4 0  9993,2 55791  70.0010 101.8128 0002924 268.3596  91.7228 14.98326451 44802,6950.204,96.107,574.101,570.037,0.0
55791.0,STARLINK-5807,PAYLOAD,2023-12-15 11:24:54,14.98329398,0.0002949,70.0011,99.9612,266.197,93.8852,-4.9634e-05,-6.85e-06,0.0,0 STARLINK-5807,1 55791U 23028BC  23349.47562891 -.00000685  00000-0 -49634-4 0  9996,2 55791  70.0011  99.9612 0002949 266.1970  93.8852 14.98329398 44907,6950.195,96.107,574.109,570.01,0.0
55791.0,STARLINK-5807,PAYLOAD,2023-12-15 14:37:10,14.98327777,0.0002735,70.0008,99.6244,256.8583,103.2271,-3.932e-05,-5.62e-06,0.0,0 STARLINK-5807,1 55791U 23028BC  23349.60914963 -.00000562  00000-0 -39320-4 0  9997,2 55791  70.0008  99.6244 0002735 256.8583 103.2271 14.98327777 44933,6950.2,96.107,573.966,570.164,0.0
55791.0,STARLINK-5807,PAYLOAD,2023-12-15 17:49:26,14.98328779,0.0002805,70.0008,99.2877,261.1658,98.9184,-4.3434e-05,-6.11e-06,0.0,0 STARLINK-5807,1 55791U 23028BC  23349.74266938 -.00000611  00000-0 -43434-4 0  9990,2 55791  70.0008  99.2877 0002805 261.1658  98.9184 14.98328779 44959,6950.197,96.107,574.011,570.112,0.0
55791.0,STARLINK-5807,PAYLOAD,2023-12-16 11:26:55,14.9832896,0.0003191,70.0007,97.436,269.5642,90.5152,2.8338e-05,2.45e-06,0.0,0 STARLINK-5807,1 55791U 23028BC  23350.47702781  .00000245  00000-0  28338-4 0  9990,2 55791  70.0007  97.4360 0003191 269.5642  90.5152 14.98328960 45056,6950.196,96.107,574.279,569.843,0.0
55791.0,STARLINK-5807,PAYLOAD,2023-12-16 13:03:03,14.98329877,0.0003199,70.0006,97.2675,269.9958,90.0835,4.27e-05,4.17e-06,0.0,0 STARLINK-5807,1 55791U 23028BC  23350.54378740  .00000417  00000-0  42700-4 0  9992,2 55791  70.0006  97.2675 0003199 269.9958  90.0835 14.98329877 45077,6950.193,96.107,574.282,569.835,0.0
55791.0,STARLINK-5807,PAYLOAD,2023-12-16 17:51:27,14.98331754,0.000327,70.0004,96.7624,271.0628,89.0157,5.6632e-05,5.83e-06,0.0,0 STARLINK-5807,1 55791U 23028BC  23350.74406549  .00000583  00000-0  56632-4 0  9996,2 55791  70.0004  96.7624 0003270 271.0628  89.0157 14.98331754 45107,6950.187,96.107,574.325,569.78,0.0
55791.0,STARLINK-5807,PAYLOAD,2023-12-17 11:28:56,14.98327299,0.0003179,70.0011,94.9112,268.5074,91.5721,2.5093e-05,2.06e-06,0.0,0 STARLINK-5807,1 55791U 23028BC  23351.47842905  .00000206  00000-0  25093-4 0  9996,2 55791  70.0011  94.9112 0003179 268.5074  91.5721 14.98327299 45206,6950.201,96.107,574.276,569.857,0.0
55791.0,STARLINK-5807,PAYLOAD,2023-12-17 14:41:12,14.98327544,0.0003152,70.0011,94.5745,267.6223,92.4576,3.5597e-05,3.32e-06,0.0,0 STARLINK-5807,1 55791U 23028BC  23351.61194864  .00000332  00000-0  35597-4 0  9996,2 55791  70.0011  94.5745 0003152 267.6223  92.4576 14.98327544 45235,6950.2,96.107,574.256,569.875,0.0
55791.0,STARLINK-5807,PAYLOAD,2023-12-17 16:17:20,14.98329309,0.000308,70.0011,94.4064,265.6949,94.3858,2.6211e-05,2.2e-06,0.0,0 STARLINK-5807,1 55791U 23028BC  23351.67870784  .00000220  00000-0  26211-4 0  9993,2 55791  70.0011  94.4064 0003080 265.6949  94.3858 14.98329309 45247,6950.195,96.107,574.201,569.919,0.0
55791.0,STARLINK-5807,PAYLOAD,2023-12-18 11:30:57,14.98328283,0.0003038,70.0012,92.3869,259.3544,100.7273,-4.6165e-05,-6.44e-06,0.0,0 STARLINK-5807,1 55791U 23028BC  23352.47983020 -.00000644  00000-0 -46165-4 0  9992,2 55791  70.0012  92.3869 0003038 259.3544 100.7273 14.98328283 45357,6950.198,96.107,574.175,569.952,0.0
55791.0,STARLINK-5807,PAYLOAD,2023-12-18 14:43:13,14.98328267,0.0003003,70.0014,92.0503,256.9034,103.179,-2.7944e-05,-4.26e-06,0.0,0 STARLINK-5807,1 55791U 23028BC  23352.61334979 -.00000426  00000-0 -27944-4 0  9993,2 55791  70.0014  92.0503 0003003 256.9034 103.1790 14.98328267 45386,6950.198,96.107,574.15,569.976,0.0
55791.0,STARLINK-5807,PAYLOAD,2023-12-18 16:19:21,14.98333269,0.0003192,70.0008,91.8807,269.9616,90.1177,2.1581e-05,1.65e-06,0.0,0 STARLINK-5807,1 55791U 23028BC  23352.68010610  .00000165  00000-0  21581-4 0  9992,2 55791  70.0008  91.8807 0003192 269.9616  90.1177 14.98333269 45395,6950.183,96.107,574.266,569.829,0.0
55791.0,STARLINK-5807,PAYLOAD,2023-12-19 11:32:57,14.98329411,0.0003062,70.0011,89.8619,261.5933,98.4879,7.194e-05,7.65e-06,0.0,0 STARLINK-5807,1 55791U 23028BC  23353.48122561  .00000765  00000-0  71940-4 0  9990,2 55791  70.0011  89.8619 0003062 261.5933  98.4879 14.98329411 45500,6950.195,96.107,574.188,569.932,0.0
55791.0,STARLINK-5807,PAYLOAD,2023-12-19 14:45:13,14.98333856,0.0003016,70.0014,89.5258,255.1933,104.8892,3.447e-05,3.18e-06,0.0,0 STARLINK-5807,1 55791U 23028BC  23353.61474322  .00000318  00000-0  34470-4 0  9991,2 55791  70.0014  89.5258 0003016 255.1933 104.8892 14.98333856 45535,6950.181,96.107,574.142,569.95,0.0
55791.0,STARLINK-5807,PAYLOAD,2023-12-20 11:34:59,14.98322256,0.0002743,70.0026,87.3397,241.0614,119.027,5.8698e-06,-2.3e-07,0.0,0 STARLINK-5807,1 55791U 23028BC  23354.48263156 -.00000023  00000-0  58698-5 0  9991,2 55791  70.0026  87.3397 0002743 241.0614 119.0270 14.98322256 45657,6950.217,96.107,573.988,570.175,0.0
55791.0,STARLINK-5807,PAYLOAD,2023-12-20 13:11:07,14.98322048,0.000278,70.0025,87.1713,243.5522,116.5352,1.2731e-07,-9.1e-07,0.0,0 STARLINK-5807,1 55791U 23028BC  23354.54939228 -.00000091  00000-0  12731-6 0  9992,2 55791  70.0025  87.1713 0002780 243.5522 116.5352 14.98322048 45676,6950.217,96.108,574.015,570.15,0.0
